STARLINK-36037          
1 66613U 25270AB  25355.14959340  .00030081  00000+0  72415-3 0  9996
2 66613  42.9975 144.1043 0001093 262.5088  97.5644 15.40715796  5646
STARLINK-36040          
1 66614U 25270AC  25355.00002315  .00024716  00000+0  59715-3 0  9999
2 66614  43.0000 144.6954 0001997 275.5423  85.8984 15.40692599  5578
STARLINK-35988          
1 66615U 25270AD  25354.81872677  .00038267  00000+0  91862-3 0  9999
2 66615  43.0001 145.9221 0001863 284.8936  75.1714 15.40703330  5439
STARLINK-35391          
1 66616U 25270AE  25355.16668980 -.00009064  00000+0 -20997-3 0  9995
2 66616  43.0003 143.6736 0001366 272.9752 318.8680 15.40700066  5869
STARLINK-35940          
1 66617U 25271A   25355.14903219  .00041160  00000+0  10329-2 0  9990
2 66617  53.1602 147.4589 0001607  88.6329 271.4860 15.39636320  5509
STARLINK-35970          
1 66618U 25271B   25353.94001647 -.00400830  00000+0 -83391-2 0  9995
2 66618  53.1597 152.7030 0001439  41.7030 318.4087 15.46560751  5320
STARLINK-35951          
1 66619U 25271C   25353.94821470 -.00390680  00000+0 -81194-2 0  9990
2 66619  53.1623 152.7597 0002872  23.3692 336.7446 15.46545275  5327
STARLINK-35936          
1 66620U 25271D   25353.94998243 -.00389636  00000+0 -84825-2 0  9998
2 66620  53.1593 152.7719 0001217  60.4895 299.6234 15.45204148  5322
STARLINK-35847          
1 66621U 25271E   25353.93936154 -.00261578  00000+0 -53109-2 0  9996
2 66621  53.1594 152.6978 0000574 182.8412 177.2593 15.46739890  5326
STARLINK-35950          
1 66622U 25271F   25355.16668980  .00008474  00000+0  22164-3 0  9993
2 66622  53.1595 147.1701 0001164  78.5985 122.5553 15.39612868  5598
STARLINK-35920          
1 66623U 25271G   25355.13972161  .00029548  00000+0  74533-3 0  9992
2 66623  53.1604 147.3981 0000370  94.5229 265.5818 15.39639229  5502
STARLINK-35927          
1 66624U 25271H   25353.94751832 -.00403682  00000+0 -84107-2 0  9994
2 66624  53.1590 152.7553 0000849 106.2501 253.8600 15.46532201  5326
