CCSDS_OMM_VERS = 2.0
CREATION_DATE  = 
ORIGINATOR     = 

OBJECT_NAME    = STARLINK-36037
OBJECT_ID      = 2025-270AB
CENTER_NAME    = EARTH
REF_FRAME      = TEME
TIME_SYSTEM    = UTC
MEAN_ELEMENT_THEORY = SGP/SGP4

EPOCH          = 2025-12-21T03:35:24.869760
MEAN_MOTION    = 15.40715796
ECCENTRICITY   = .0001093
INCLINATION    = 42.9975
RA_OF_ASC_NODE = 144.1043
ARG_OF_PERICENTER = 262.5088
MEAN_ANOMALY   = 97.5644

EPHEMERIS_TYPE = 0
CLASSIFICATION_TYPE = U
NORAD_CAT_ID   = 66613
ELEMENT_SET_NO = 999
REV_AT_EPOCH   = 564
BSTAR          = .72415E-3
MEAN_MOTION_DOT = .30081E-3
MEAN_MOTION_DDOT = 0

CCSDS_OMM_VERS = 2.0
CREATION_DATE  = 
ORIGINATOR     = 

OBJECT_NAME    = STARLINK-36040
OBJECT_ID      = 2025-270AC
CENTER_NAME    = EARTH
REF_FRAME      = TEME
TIME_SYSTEM    = UTC
MEAN_ELEMENT_THEORY = SGP/SGP4

EPOCH          = 2025-12-21T00:00:02.000160
MEAN_MOTION    = 15.40692599
ECCENTRICITY   = .0001997
INCLINATION    = 43.0000
RA_OF_ASC_NODE = 144.6954
ARG_OF_PERICENTER = 275.5423
MEAN_ANOMALY   = 85.8984

EPHEMERIS_TYPE = 0
CLASSIFICATION_TYPE = U
NORAD_CAT_ID   = 66614
ELEMENT_SET_NO = 999
REV_AT_EPOCH   = 557
BSTAR          = .59715E-3
MEAN_MOTION_DOT = .24716E-3
MEAN_MOTION_DDOT = 0

CCSDS_OMM_VERS = 2.0
CREATION_DATE  = 
ORIGINATOR     = 

OBJECT_NAME    = STARLINK-35988
OBJECT_ID      = 2025-270AD
CENTER_NAME    = EARTH
REF_FRAME      = TEME
TIME_SYSTEM    = UTC
MEAN_ELEMENT_THEORY = SGP/SGP4

EPOCH          = 2025-12-20T19:38:57.992928
MEAN_MOTION    = 15.40703330
ECCENTRICITY   = .00018631
INCLINATION    = 43.0001
RA_OF_ASC_NODE = 145.9221
ARG_OF_PERICENTER = 284.8936
MEAN_ANOMALY   = 75.1714

EPHEMERIS_TYPE = 0
CLASSIFICATION_TYPE = U
NORAD_CAT_ID   = 66615
ELEMENT_SET_NO = 999
REV_AT_EPOCH   = 543
BSTAR          = .91861833E-3
MEAN_MOTION_DOT = .38267E-3
MEAN_MOTION_DDOT = 0

CCSDS_OMM_VERS = 2.0
CREATION_DATE  = 
ORIGINATOR     = 

OBJECT_NAME    = STARLINK-35391
OBJECT_ID      = 2025-270AE
CENTER_NAME    = EARTH
REF_FRAME      = TEME
TIME_SYSTEM    = UTC
MEAN_ELEMENT_THEORY = SGP/SGP4

EPOCH          = 2025-12-21T04:00:01.998720
MEAN_MOTION    = 15.40700066
ECCENTRICITY   = .0001366
INCLINATION    = 43.0003
RA_OF_ASC_NODE = 143.6736
ARG_OF_PERICENTER = 272.9752
MEAN_ANOMALY   = 318.8680

EPHEMERIS_TYPE = 0
CLASSIFICATION_TYPE = U
NORAD_CAT_ID   = 66616
ELEMENT_SET_NO = 999
REV_AT_EPOCH   = 586
BSTAR          = -.20997E-3
MEAN_MOTION_DOT = -.9064E-4
MEAN_MOTION_DDOT = 0

CCSDS_OMM_VERS = 2.0
CREATION_DATE  = 
ORIGINATOR     = 

OBJECT_NAME    = STARLINK-35940
OBJECT_ID      = 2025-271A
CENTER_NAME    = EARTH
REF_FRAME      = TEME
TIME_SYSTEM    = UTC
MEAN_ELEMENT_THEORY = SGP/SGP4

EPOCH          = 2025-12-21T03:34:36.381216
MEAN_MOTION    = 15.39636320
ECCENTRICITY   = .0001607
INCLINATION    = 53.1602
RA_OF_ASC_NODE = 147.4589
ARG_OF_PERICENTER = 88.6329
MEAN_ANOMALY   = 271.4860

EPHEMERIS_TYPE = 0
CLASSIFICATION_TYPE = U
NORAD_CAT_ID   = 66617
ELEMENT_SET_NO = 999
REV_AT_EPOCH   = 550
BSTAR          = .10329E-2
MEAN_MOTION_DOT = .4116E-3
MEAN_MOTION_DDOT = 0

CCSDS_OMM_VERS = 2.0
CREATION_DATE  = 
ORIGINATOR     = 

OBJECT_NAME    = STARLINK-35970
OBJECT_ID      = 2025-271B
CENTER_NAME    = EARTH
REF_FRAME      = TEME
TIME_SYSTEM    = UTC
MEAN_ELEMENT_THEORY = SGP/SGP4

EPOCH          = 2025-12-19T22:33:37.423008
MEAN_MOTION    = 15.46560751
ECCENTRICITY   = .0001439
INCLINATION    = 53.1597
RA_OF_ASC_NODE = 152.7030
ARG_OF_PERICENTER = 41.7030
MEAN_ANOMALY   = 318.4087

EPHEMERIS_TYPE = 0
CLASSIFICATION_TYPE = U
NORAD_CAT_ID   = 66618
ELEMENT_SET_NO = 999
REV_AT_EPOCH   = 532
BSTAR          = -.83391E-2
MEAN_MOTION_DOT = -.40083E-2
MEAN_MOTION_DDOT = 0

CCSDS_OMM_VERS = 2.0
CREATION_DATE  = 
ORIGINATOR     = 

OBJECT_NAME    = STARLINK-35951
OBJECT_ID      = 2025-271C
CENTER_NAME    = EARTH
REF_FRAME      = TEME
TIME_SYSTEM    = UTC
MEAN_ELEMENT_THEORY = SGP/SGP4

EPOCH          = 2025-12-19T22:45:25.750080
MEAN_MOTION    = 15.46545275
ECCENTRICITY   = .0002872
INCLINATION    = 53.1623
RA_OF_ASC_NODE = 152.7597
ARG_OF_PERICENTER = 23.3692
MEAN_ANOMALY   = 336.7446

EPHEMERIS_TYPE = 0
CLASSIFICATION_TYPE = U
NORAD_CAT_ID   = 66619
ELEMENT_SET_NO = 999
REV_AT_EPOCH   = 532
BSTAR          = -.81194E-2
MEAN_MOTION_DOT = -.39068E-2
MEAN_MOTION_DDOT = 0

CCSDS_OMM_VERS = 2.0
CREATION_DATE  = 
ORIGINATOR     = 

OBJECT_NAME    = STARLINK-35936
OBJECT_ID      = 2025-271D
CENTER_NAME    = EARTH
REF_FRAME      = TEME
TIME_SYSTEM    = UTC
MEAN_ELEMENT_THEORY = SGP/SGP4

EPOCH          = 2025-12-19T22:47:58.481952
MEAN_MOTION    = 15.45204148
ECCENTRICITY   = .0001217
INCLINATION    = 53.1593
RA_OF_ASC_NODE = 152.7719
ARG_OF_PERICENTER = 60.4895
MEAN_ANOMALY   = 299.6234

EPHEMERIS_TYPE = 0
CLASSIFICATION_TYPE = U
NORAD_CAT_ID   = 66620
ELEMENT_SET_NO = 999
REV_AT_EPOCH   = 532
BSTAR          = -.84825E-2
MEAN_MOTION_DOT = -.389636E-2
MEAN_MOTION_DDOT = 0

CCSDS_OMM_VERS = 2.0
CREATION_DATE  = 
ORIGINATOR     = 

OBJECT_NAME    = STARLINK-35847
OBJECT_ID      = 2025-271E
CENTER_NAME    = EARTH
REF_FRAME      = TEME
TIME_SYSTEM    = UTC
MEAN_ELEMENT_THEORY = SGP/SGP4

EPOCH          = 2025-12-19T22:32:40.837056
MEAN_MOTION    = 15.46739890
ECCENTRICITY   = .0000574
INCLINATION    = 53.1594
RA_OF_ASC_NODE = 152.6978
ARG_OF_PERICENTER = 182.8412
MEAN_ANOMALY   = 177.2593

EPHEMERIS_TYPE = 0
CLASSIFICATION_TYPE = U
NORAD_CAT_ID   = 66621
ELEMENT_SET_NO = 999
REV_AT_EPOCH   = 532
BSTAR          = -.53109E-2
MEAN_MOTION_DOT = -.261578E-2
MEAN_MOTION_DDOT = 0

CCSDS_OMM_VERS = 2.0
CREATION_DATE  = 
ORIGINATOR     = 

OBJECT_NAME    = STARLINK-35950
OBJECT_ID      = 2025-271F
CENTER_NAME    = EARTH
REF_FRAME      = TEME
TIME_SYSTEM    = UTC
MEAN_ELEMENT_THEORY = SGP/SGP4

EPOCH          = 2025-12-21T04:00:01.998720
MEAN_MOTION    = 15.39612868
ECCENTRICITY   = .0001164
INCLINATION    = 53.1595
RA_OF_ASC_NODE = 147.1701
ARG_OF_PERICENTER = 78.5985
MEAN_ANOMALY   = 122.5553

EPHEMERIS_TYPE = 0
CLASSIFICATION_TYPE = U
NORAD_CAT_ID   = 66622
ELEMENT_SET_NO = 999
REV_AT_EPOCH   = 559
BSTAR          = .22164E-3
MEAN_MOTION_DOT = .8474E-4
MEAN_MOTION_DDOT = 0

CCSDS_OMM_VERS = 2.0
CREATION_DATE  = 
ORIGINATOR     = 

OBJECT_NAME    = STARLINK-35920
OBJECT_ID      = 2025-271G
CENTER_NAME    = EARTH
REF_FRAME      = TEME
TIME_SYSTEM    = UTC
MEAN_ELEMENT_THEORY = SGP/SGP4

EPOCH          = 2025-12-21T03:21:11.947104
MEAN_MOTION    = 15.39639229
ECCENTRICITY   = .000037
INCLINATION    = 53.1604
RA_OF_ASC_NODE = 147.3981
ARG_OF_PERICENTER = 94.5229
MEAN_ANOMALY   = 265.5818

EPHEMERIS_TYPE = 0
CLASSIFICATION_TYPE = U
NORAD_CAT_ID   = 66623
ELEMENT_SET_NO = 999
REV_AT_EPOCH   = 550
BSTAR          = .74533E-3
MEAN_MOTION_DOT = .29548E-3
MEAN_MOTION_DDOT = 0

CCSDS_OMM_VERS = 2.0
CREATION_DATE  = 
ORIGINATOR     = 

OBJECT_NAME    = STARLINK-35927
OBJECT_ID      = 2025-271H
CENTER_NAME    = EARTH
REF_FRAME      = TEME
TIME_SYSTEM    = UTC
MEAN_ELEMENT_THEORY = SGP/SGP4

EPOCH          = 2025-12-19T22:44:25.582848
MEAN_MOTION    = 15.46532201
ECCENTRICITY   = .0000849
INCLINATION    = 53.1590
RA_OF_ASC_NODE = 152.7553
ARG_OF_PERICENTER = 106.2501
MEAN_ANOMALY   = 253.8600

EPHEMERIS_TYPE = 0
CLASSIFICATION_TYPE = U
NORAD_CAT_ID   = 66624
ELEMENT_SET_NO = 999
REV_AT_EPOCH   = 532
BSTAR          = -.84107E-2
MEAN_MOTION_DOT = -.403682E-2
MEAN_MOTION_DDOT = 0

